NORAD_CAT_ID,OBJECT_NAME,OBJECT_TYPE,EPOCH,MEAN_MOTION,ECCENTRICITY,INCLINATION,RA_OF_ASC_NODE,ARG_OF_PERICENTER,MEAN_ANOMALY,BSTAR,MEAN_MOTION_DOT,MEAN_MOTION_DDOT,TLE_LINE0,TLE_LINE1,TLE_LINE2,SEMIMAJOR_AXIS,PERIOD,APOGEE,PERIGEE,DECAYED
51814.0,STARLINK-3599,PAYLOAD,2022-11-29 09:35:30,15.088290900000002,0.0002223,53.2186,299.4875,38.0872,322.0277,5.8532e-05,6.43e-06,0.0,0 STARLINK-3599,1 51814U 22017AY  22333.39966079  .00000643  00000-0  58532-4 0  9993,2 51814  53.2186 299.4875 0002223  38.0872 322.0277 15.08829090 43481,6917.9140000000025,95.438,541.317,538.241,0.0
51814.0,STARLINK-3599,PAYLOAD,2022-11-29 14:21:40,15.08831223,0.0002238,53.2187,298.5954,38.2215,321.8935,3.2425e-05,2.28e-06,0.0,0 STARLINK-3599,1 51814U 22017AY  22333.59838144  .00000228  00000-0  32425-4 0  9998,2 51814  53.2187 298.5954 0002238  38.2215 321.8935 15.08831223 43512,6917.906999999997,95.438,541.32,538.224,0.0
51814.0,STARLINK-3599,PAYLOAD,2022-11-30 07:50:54,15.08830067,0.0002227,53.2188,295.3247,36.7404,323.3741,4.6199e-05,4.47e-06,0.0,0 STARLINK-3599,1 51814U 22017AY  22334.32702536  .00000447  00000-0  46199-4 0  9991,2 51814  53.2188 295.3247 0002227  36.7404 323.3741 15.08830067 43746,6917.911,95.438,541.316,538.235,0.0
51814.0,STARLINK-3599,PAYLOAD,2022-12-01 07:41:41,15.08834971,0.0002181,53.2187,290.8643,36.7432,323.3709,7.3451e-05,8.81e-06,0.0,0 STARLINK-3599,1 51814U 22017AY  22335.32062476  .00000881  00000-0  73451-4 0  9997,2 51814  53.2187 290.8643 0002181  36.7432 323.3709 15.08834971 43770,6917.896,95.438,541.27,538.252,0.0
51814.0,STARLINK-3599,PAYLOAD,2022-12-01 14:03:14,15.08841889,0.0002199,53.2188,289.6749,36.3008,323.8133,0.00011452,1.535e-05,0.0,0 STARLINK-3599,1 51814U 22017AY  22335.58557944  .00001535  00000-0  11452-3 0  9993,2 51814  53.2188 289.6749 0002199  36.3008 323.8133 15.08841889 43938,6917.875,95.437,541.261,538.2180000000002,0.0
51814.0,STARLINK-3599,PAYLOAD,2022-12-02 05:57:06,15.08831512,0.000219,53.2188,286.7016,36.5714,323.5427,8.7969e-06,-1.48e-06,0.0,0 STARLINK-3599,1 51814U 22017AY  22336.24799043 -.00000148  00000-0  87969-5 0  9993,2 51814  53.2188 286.7016 0002190  36.5714 323.5427 15.08831512 44037,6917.906,95.438,541.286,538.256,0.0
51814.0,STARLINK-3599,PAYLOAD,2022-12-02 13:54:02,15.0883025,0.0002199,53.2187,285.2148,36.9672,323.1471,-1.5315e-05,-5.32e-06,0.0,0 STARLINK-3599,1 51814U 22017AY  22336.57919368 -.00000532  00000-0 -15315-4 0  9996,2 51814  53.2187 285.2148 0002199  36.9672 323.1471 15.08830250 43966,6917.91,95.438,541.2959999999998,538.254,0.0
51814.0,STARLINK-3599,PAYLOAD,2022-12-03 05:47:53,15.08839429,0.0002187,53.218,282.2403,35.8272,324.2866,4.5556e-05,4.37e-06,0.0,0 STARLINK-3599,1 51814U 22017AY  22337.24158714  .00000437  00000-0  45556-4 0  9993,2 51814  53.2180 282.2403 0002187  35.8272 324.2866 15.08839429 44183,6917.882,95.438,541.26,538.234,0.0
51814.0,STARLINK-3599,PAYLOAD,2022-12-03 13:44:49,15.08838366,0.0002184,53.2178,280.7536,36.4289,323.6851,5.9587e-06,-1.93e-06,0.0,0 STARLINK-3599,1 51814U 22017AY  22337.57278956 -.00000193  00000-0  59587-5 0  9990,2 51814  53.2178 280.7536 0002184  36.4289 323.6851 15.08838366 44111,6917.885,95.438,541.261,538.24,0.0
51814.0,STARLINK-3599,PAYLOAD,2022-12-03 20:06:21,15.08842353,0.0001953,53.2179,279.5636,35.3626,324.7495,-2.2922e-05,-6.53e-06,0.0,0 STARLINK-3599,1 51814U 22017AY  22337.83774694 -.00000653  00000-0 -22922-4 0  9993,2 51814  53.2179 279.5636 0001953  35.3626 324.7495 15.08842353 44156,6917.873000000001,95.437,541.089,538.387,0.0
51814.0,STARLINK-3599,PAYLOAD,2022-12-04 02:27:52,15.08865087,0.0002242,53.2177,278.3748,32.6559,327.4571,-0.00022036,-3.796e-05,0.0,0 STARLINK-3599,1 51814U 22017AY  22338.10269623 -.00003796  00000-0 -22036-3 0  9991,2 51814  53.2177 278.3748 0002242  32.6559 327.4571 15.08865087 44314,6917.804,95.436,541.22,538.118,0.0
51814.0,STARLINK-3599,PAYLOAD,2022-12-04 13:35:35,15.08834937,0.0002204,53.2174,276.2951,36.5735,323.5408,0.00011995,1.621e-05,0.0,0 STARLINK-3599,1 51814U 22017AY  22338.56638881  .00001621  00000-0  11995-3 0  9992,2 51814  53.2174 276.2951 0002204  36.5735 323.5408 15.08834937 44261,6917.896,95.438,541.286,538.236,0.0
51814.0,STARLINK-3599,PAYLOAD,2022-12-05 05:29:27,15.08823103,0.0002456,53.2176,273.3205,38.3957,321.721,0.00039746,6.04e-05,0.0,0 STARLINK-3599,1 51814U 22017AY  22339.22878741  .00006040  00000-0  39746-3 0  9991,2 51814  53.2176 273.3205 0002456  38.3957 321.7210 15.08823103 44363,6917.932,95.439,541.496,538.0980000000002,0.0
51814.0,STARLINK-3599,PAYLOAD,2022-12-06 02:09:27,15.08842614,0.0002254,53.2178,269.4546,38.6864,321.4290000000001,8.9504e-05,1.137e-05,0.0,0 STARLINK-3599,1 51814U 22017AY  22340.08990140  .00001137  00000-0  89504-4 0  9995,2 51814  53.2178 269.4546 0002254  38.6864 321.4290 15.08842614 44616,6917.871999999999,95.437,541.297,538.178,0.0
51814.0,STARLINK-3599,PAYLOAD,2022-12-06 05:20:13,15.08845415,0.0002301,53.2182,268.8602,40.3499,319.7663,2.8154e-06,-2.44e-06,0.0,0 STARLINK-3599,1 51814U 22017AY  22340.22238183 -.00000244  00000-0  28154-5 0  9997,2 51814  53.2182 268.8602 0002301  40.3499 319.7663 15.08845415 44519,6917.864000000001,95.437,541.321,538.137,0.0
51814.0,STARLINK-3599,PAYLOAD,2022-12-06 19:38:42,15.08833649,0.0002354,53.2179,266.1835,39.7363,320.3802,-5.2334e-05,-1.121e-05,0.0,0 STARLINK-3599,1 51814U 22017AY  22340.81855204 -.00001121  00000-0 -52334-4 0  9993,2 51814  53.2179 266.1835 0002354  39.7363 320.3802 15.08833649 44603,6917.9,95.438,541.393,538.136,0.0
51814.0,STARLINK-3599,PAYLOAD,2022-12-07 05:11:02,15.0882422,0.0002355,53.2176,264.3993,37.8102,322.3056,-0.00013538,-2.441e-05,0.0,0 STARLINK-3599,1 51814U 22017AY  22341.21600382 -.00002441  00000-0 -13538-3 0  9991,2 51814  53.2176 264.3993 0002355  37.8102 322.3056 15.08824220 44783,6917.929,95.439,541.423,538.164,0.0
51814.0,STARLINK-3599,PAYLOAD,2022-12-07 11:32:34,15.08830792,0.0002211,53.2184,263.2103,41.035,319.0808,-8.23e-05,-1.598e-05,0.0,0 STARLINK-3599,1 51814U 22017AY  22341.48095951 -.00001598  00000-0 -82300-4 0  9996,2 51814  53.2184 263.2103 0002211  41.0350 319.0808 15.08830792 44820,6917.909000000002,95.438,541.303,538.244,0.0
51814.0,STARLINK-3599,PAYLOAD,2022-12-07 19:29:30,15.08824945,0.0001945,53.2179,261.7241,44.6738,315.441,7.2731e-05,8.69e-06,0.0,0 STARLINK-3599,1 51814U 22017AY  22341.81215806  .00000869  00000-0  72731-4 0  9991,2 51814  53.2179 261.7241 0001945  44.6738 315.4410 15.08824945 44756,6917.926,95.439,541.137,538.446,0.0
51814.0,STARLINK-3599,PAYLOAD,2022-12-07 22:40:15,15.0885002,0.0002161,53.2189,261.1307,55.969,304.1507,1.3341e-05,-7.6e-07,0.0,0 STARLINK-3599,1 51814U 22017AY  22341.94462743 -.00000076  00000-0  13341-4 0  9992,2 51814  53.2189 261.1307 0002161  55.9690 304.1507 15.08850020 44897,6917.85,95.437,541.21,538.22,0.0
51814.0,STARLINK-3599,PAYLOAD,2022-12-08 01:51:02,15.08849126,0.0002235,53.219,260.5343,43.2423,316.8744,5.1038e-05,5.24e-06,0.0,0 STARLINK-3599,1 51814U 22017AY  22342.07710660  .00000524  00000-0  51038-4 0  9993,2 51814  53.2190 260.5343 0002235  43.2423 316.8744 15.08849126 44795,6917.852,95.437,541.264,538.1709999999998,0.0
51814.0,STARLINK-3599,PAYLOAD,2022-12-09 01:41:48,15.0884166,0.0002086,53.2188,256.069,49.2276,310.8897,0.00024919,3.68e-05,0.0,0 STARLINK-3599,1 51814U 22017AY  22343.07070293  .00003680  00000-0  24919-3 0  9998,2 51814  53.2188 256.0690 0002086  49.2276 310.8897 15.08841660 45062,6917.875,95.437,541.183,538.297,0.0
51814.0,STARLINK-3599,PAYLOAD,2022-12-10 04:43:22,15.08846457,0.0002695,53.2193,251.0199,40.7706,319.3488,2.9812e-05,1.86e-06,0.0,0 STARLINK-3599,1 51814U 22017AY  22344.19679380  .00000186  00000-0  29812-4 0  9990,2 51814  53.2193 251.0199 0002695  40.7706 319.3488 15.08846457 45235,6917.861,95.437,541.59,537.861,0.0
51814.0,STARLINK-3599,PAYLOAD,2022-12-11 02:58:47,15.08843149,0.0002792,53.2199,246.8559,31.7507,328.3653,-5.4373e-05,-1.154e-05,0.0,0 STARLINK-3599,1 51814U 22017AY  22345.12415675 -.00001154  00000-0 -54373-4 0  9997,2 51814  53.2199 246.8559 0002792  31.7507 328.3653 15.08843149 45374,6917.871,95.437,541.6669999999998,537.804,0.0
51814.0,STARLINK-3599,PAYLOAD,2022-12-11 14:06:28,15.08846804,0.0002414,53.2187,244.774,37.0153,323.1005,4.659600000000001e-05,4.53e-06,0.0,0 STARLINK-3599,1 51814U 22017AY  22345.58783200  .00000453  00000-0  46596-4 0  9996,2 51814  53.2187 244.7740 0002414  37.0153 323.1005 15.08846804 45327,6917.86,95.437,541.395,538.055,0.0
51814.0,STARLINK-3599,PAYLOAD,2022-12-12 02:49:34,15.08835429,0.0002575,53.2184,242.3966,43.3265,316.7929,-2.7551e-05,-7.27e-06,0.0,0 STARLINK-3599,1 51814U 22017AY  22346.11776066 -.00000727  00000-0 -27551-4 0  9994,2 51814  53.2184 242.3966 0002575  43.3265 316.7929 15.08835429 45526,6917.894,95.438,541.5409999999998,537.9780000000002,0.0
51814.0,STARLINK-3599,PAYLOAD,2022-12-12 23:29:35,15.08837601,0.0002101,53.2174,238.5292,38.8721,321.2422,2.4124e-05,9.6e-07,0.0,0 STARLINK-3599,1 51814U 22017AY  22346.97887767  .00000096  00000-0  24124-4 0  9999,2 51814  53.2174 238.5292 0002101  38.8721 321.2422 15.08837601 45539,6917.888000000001,95.438,541.206,538.299,0.0
51814.0,STARLINK-3599,PAYLOAD,2022-12-13 16:58:51,15.08731871,0.0002652,53.2174,235.2594,50.7784,309.3444,0.0014667,0.00023063,0.0,0 STARLINK-3599,1 51814U 22017AY  22347.70753639  .00023063  00000-0  14667-2 0  9999,2 51814  53.2174 235.2594 0002652  50.7784 309.3444 15.08731871 45769,6918.2109999999975,95.444,541.911,538.241,0.0
51814.0,STARLINK-3599,PAYLOAD,2022-12-14 02:31:08,15.08837319,0.0002319,53.2174,233.4741,40.7972,319.3193,0.00010575,1.395e-05,0.0,0 STARLINK-3599,1 51814U 22017AY  22348.10495608  .00001395  00000-0  10575-3 0  9992,2 51814  53.2174 233.4741 0002319  40.7972 319.3193 15.08837319 45824,6917.889,95.438,541.3580000000002,538.149,0.0
